[{"OBJECT_NAME":"OBJECT A","OBJECT_ID":"2023-069A","EPOCH":"2026-03-09T23:23:38.832000","MEAN_MOTION":15.439714,"ECCENTRICITY":0.00293771,"INCLINATION":40.9954,"RA_OF_ASC_NODE":47.9643,"ARG_OF_PERICENTER":310.3432,"MEAN_ANOMALY":49.4829,"EPHEMERIS_TYPE":0,"CLASSIFICATION_TYPE":"U","NORAD_CAT_ID":56731,"ELEMENT_SET_NO":999,"REV_AT_EPOCH":15774,"BSTAR":0.00033298107,"MEAN_MOTION_DOT":0.00015557,"MEAN_MOTION_DDOT":0},{"OBJECT_NAME":"H-2A R\/B","OBJECT_ID":"2016-012E","EPOCH":"2026-03-09T13:56:00.077280","MEAN_MOTION":15.50545748,"ECCENTRICITY":0.000445,"INCLINATION":30.6224,"RA_OF_ASC_NODE":241.3867,"ARG_OF_PERICENTER":267.0024,"MEAN_ANOMALY":93.0109,"EPHEMERIS_TYPE":0,"CLASSIFICATION_TYPE":"U","NORAD_CAT_ID":41341,"ELEMENT_SET_NO":999,"REV_AT_EPOCH":55602,"BSTAR":0.00066465,"MEAN_MOTION_DOT":0.00039664,"MEAN_MOTION_DDOT":0}]
